{
  "type": "FeatureCollection",
  "features": [
    {
      "type": "Feature",
      "properties": {
        "OBJECT_NAME": "PLEIADES 1B",
        "OBJECT_ID": "2012-068A",
        "EPOCH": "2025-11-28T00:11:28.841280",
        "MEAN_MOTION": 14.58591848,
        "ECCENTRICITY": 0.0001299,
        "INCLINATION": 98.181,
        "RA_OF_ASC_NODE": 44.8913,
        "ARG_OF_PERICENTER": 88.6876,
        "MEAN_ANOMALY": 271.4472,
        "EPHEMERIS_TYPE": 0,
        "CLASSIFICATION_TYPE": "U",
        "NORAD_CAT_ID": 39019,
        "ELEMENT_SET_NO": 999,
        "REV_AT_EPOCH": 69152,
        "BSTAR": 0.00011327,
        "MEAN_MOTION_DOT": 4.81e-06,
        "MEAN_MOTION_DDOT": 0,
        "norad_id": 39019,
        "name": "PLEIADES 1B",
        "group": "resource",
        "longitude_deg": NaN,
        "latitude_deg": NaN,
        "alt_km": NaN,
        "orbit_class": "HEO",
        "timestamp": "2025-11-30T04:58:49.601767+00:00"
      },
      "geometry": {
        "type": "Point",
        "coordinates": [
          NaN,
          NaN
        ]
      }
    },
    {
      "type": "Feature",
      "properties": {
        "OBJECT_NAME": "GOKTURK 2",
        "OBJECT_ID": "2012-073A",
        "EPOCH": "2025-11-29T19:55:03.405792",
        "MEAN_MOTION": 14.75261924,
        "ECCENTRICITY": 7.92e-05,
        "INCLINATION": 97.6902,
        "RA_OF_ASC_NODE": 176.1176,
        "ARG_OF_PERICENTER": 86.4881,
        "MEAN_ANOMALY": 273.642,
        "EPHEMERIS_TYPE": 0,
        "CLASSIFICATION_TYPE": "U",
        "NORAD_CAT_ID": 39030,
        "ELEMENT_SET_NO": 999,
        "REV_AT_EPOCH": 69511,
        "BSTAR": 0.0001018,
        "MEAN_MOTION_DOT": 6.42e-06,
        "MEAN_MOTION_DDOT": 0,
        "norad_id": 39030,
        "name": "GOKTURK 2",
        "group": "resource",
        "longitude_deg": NaN,
        "latitude_deg": NaN,
        "alt_km": NaN,
        "orbit_class": "HEO",
        "timestamp": "2025-11-30T04:58:49.601786+00:00"
      },
      "geometry": {
        "type": "Point",
        "coordinates": [
          NaN,
          NaN
        ]
      }
    },
    {
      "type": "Feature",
      "properties": {
        "OBJECT_NAME": "LANDSAT 8",
        "OBJECT_ID": "2013-008A",
        "EPOCH": "2025-11-29T19:33:51.836256",
        "MEAN_MOTION": 14.57119711,
        "ECCENTRICITY": 0.0001102,
        "INCLINATION": 98.2088,
        "RA_OF_ASC_NODE": 42.0784,
        "ARG_OF_PERICENTER": 87.7697,
        "MEAN_ANOMALY": 272.3628,
        "EPHEMERIS_TYPE": 0,
        "CLASSIFICATION_TYPE": "U",
        "NORAD_CAT_ID": 39084,
        "ELEMENT_SET_NO": 999,
        "REV_AT_EPOCH": 66886,
        "BSTAR": 0.00010503,
        "MEAN_MOTION_DOT": 4.28e-06,
        "MEAN_MOTION_DDOT": 0,
        "norad_id": 39084,
        "name": "LANDSAT 8",
        "group": "resource",
        "longitude_deg": NaN,
        "latitude_deg": NaN,
        "alt_km": NaN,
        "orbit_class": "HEO",
        "timestamp": "2025-11-30T04:58:49.601904+00:00"
      },
      "geometry": {
        "type": "Point",
        "coordinates": [
          NaN,
          NaN
        ]
      }
    },
    {
      "type": "Feature",
      "properties": {
        "OBJECT_NAME": "SARAL",
        "OBJECT_ID": "2013-009A",
        "EPOCH": "2025-11-29T19:23:29.356224",
        "MEAN_MOTION": 14.32749635,
        "ECCENTRICITY": 0.0002497,
        "INCLINATION": 98.5507,
        "RA_OF_ASC_NODE": 157.9068,
        "ARG_OF_PERICENTER": 133.8193,
        "MEAN_ANOMALY": 226.3198,
        "EPHEMERIS_TYPE": 0,
        "CLASSIFICATION_TYPE": "U",
        "NORAD_CAT_ID": 39086,
        "ELEMENT_SET_NO": 999,
        "REV_AT_EPOCH": 66705,
        "BSTAR": 6.634e-05,
        "MEAN_MOTION_DOT": 1.37e-06,
        "MEAN_MOTION_DDOT": 0,
        "norad_id": 39086,
        "name": "SARAL",
        "group": "resource",
        "longitude_deg": NaN,
        "latitude_deg": NaN,
        "alt_km": NaN,
        "orbit_class": "HEO",
        "timestamp": "2025-11-30T04:58:49.601910+00:00"
      },
      "geometry": {
        "type": "Point",
        "coordinates": [
          NaN,
          NaN
        ]
      }
    },
    {
      "type": "Feature",
      "properties": {
        "OBJECT_NAME": "GAOFEN-1",
        "OBJECT_ID": "2013-018A",
        "EPOCH": "2025-11-29T19:49:33.394080",
        "MEAN_MOTION": 14.7649663,
        "ECCENTRICITY": 0.0017386,
        "INCLINATION": 97.9341,
        "RA_OF_ASC_NODE": 44.7128,
        "ARG_OF_PERICENTER": 183.8212,
        "MEAN_ANOMALY": 176.2868,
        "EPHEMERIS_TYPE": 0,
        "CLASSIFICATION_TYPE": "U",
        "NORAD_CAT_ID": 39150,
        "ELEMENT_SET_NO": 999,
        "REV_AT_EPOCH": 67882,
        "BSTAR": 0.0001275,
        "MEAN_MOTION_DOT": 8.39e-06,
        "MEAN_MOTION_DDOT": 0,
        "norad_id": 39150,
        "name": "GAOFEN-1",
        "group": "resource",
        "longitude_deg": NaN,
        "latitude_deg": NaN,
        "alt_km": NaN,
        "orbit_class": "HEO",
        "timestamp": "2025-11-30T04:58:49.601959+00:00"
      },
      "geometry": {
        "type": "Point",
        "coordinates": [
          NaN,
          NaN
        ]
      }
    },
    {
      "type": "Feature",
      "properties": {
        "OBJECT_NAME": "VNREDSAT 1",
        "OBJECT_ID": "2013-021B",
        "EPOCH": "2025-11-29T20:21:58.061088",
        "MEAN_MOTION": 14.64890916,
        "ECCENTRICITY": 0.0001411,
        "INCLINATION": 97.9391,
        "RA_OF_ASC_NODE": 29.5744,
        "ARG_OF_PERICENTER": 84.627,
        "MEAN_ANOMALY": 275.5094,
        "EPHEMERIS_TYPE": 0,
        "CLASSIFICATION_TYPE": "U",
        "NORAD_CAT_ID": 39160,
        "ELEMENT_SET_NO": 999,
        "REV_AT_EPOCH": 67110,
        "BSTAR": 0.00013806,
        "MEAN_MOTION_DOT": 6.92e-06,
        "MEAN_MOTION_DDOT": 0,
        "norad_id": 39160,
        "name": "VNREDSAT 1",
        "group": "resource",
        "longitude_deg": NaN,
        "latitude_deg": NaN,
        "alt_km": NaN,
        "orbit_class": "HEO",
        "timestamp": "2025-11-30T04:58:49.601994+00:00"
      },
      "geometry": {
        "type": "Point",
        "coordinates": [
          NaN,
          NaN
        ]
      }
    },
    {
      "type": "Feature",
      "properties": {
        "OBJECT_NAME": "ARIRANG-5 (KOMPSAT-5)",
        "OBJECT_ID": "2013-042A",
        "EPOCH": "2025-11-29T20:10:24.460896",
        "MEAN_MOTION": 15.0452031,
        "ECCENTRICITY": 0.0004514,
        "INCLINATION": 97.6169,
        "RA_OF_ASC_NODE": 158.328,
        "ARG_OF_PERICENTER": 90.7702,
        "MEAN_ANOMALY": 269.4041,
        "EPHEMERIS_TYPE": 0,
        "CLASSIFICATION_TYPE": "U",
        "NORAD_CAT_ID": 39227,
        "ELEMENT_SET_NO": 999,
        "REV_AT_EPOCH": 67388,
        "BSTAR": 0.00012829,
        "MEAN_MOTION_DOT": 1.736e-05,
        "MEAN_MOTION_DDOT": 0,
        "norad_id": 39227,
        "name": "ARIRANG-5 (KOMPSAT-5)",
        "group": "resource",
        "longitude_deg": NaN,
        "latitude_deg": NaN,
        "alt_km": NaN,
        "orbit_class": "HEO",
        "timestamp": "2025-11-30T04:58:49.602139+00:00"
      },
      "geometry": {
        "type": "Point",
        "coordinates": [
          NaN,
          NaN
        ]
      }
    },
    {
      "type": "Feature",
      "properties": {
        "OBJECT_NAME": "SKYSAT-A",
        "OBJECT_ID": "2013-066C",
        "EPOCH": "2025-11-29T16:47:00.162816",
        "MEAN_MOTION": 15.11453185,
        "ECCENTRICITY": 0.0020638,
        "INCLINATION": 97.4132,
        "RA_OF_ASC_NODE": 24.3042,
        "ARG_OF_PERICENTER": 284.8721,
        "MEAN_ANOMALY": 75.0224,
        "EPHEMERIS_TYPE": 0,
        "CLASSIFICATION_TYPE": "U",
        "NORAD_CAT_ID": 39418,
        "ELEMENT_SET_NO": 999,
        "REV_AT_EPOCH": 65833,
        "BSTAR": 0.00024634,
        "MEAN_MOTION_DOT": 4.122e-05,
        "MEAN_MOTION_DDOT": 0,
        "norad_id": 39418,
        "name": "SKYSAT-A",
        "group": "resource",
        "longitude_deg": NaN,
        "latitude_deg": NaN,
        "alt_km": NaN,
        "orbit_class": "HEO",
        "timestamp": "2025-11-30T04:58:49.602292+00:00"
      },
      "geometry": {
        "type": "Point",
        "coordinates": [
          NaN,
          NaN
        ]
      }
    }
  ]
}