PLEIADES 1B             
1 39019U 12068A   25332.00797270  .00000481  00000+0  11327-3 0  9995
2 39019  98.1810  44.8913 0001299  88.6876 271.4472 14.58591848691527
GOKTURK 2               
1 39030U 12073A   25333.82990053  .00000642  00000+0  10180-3 0  9994
2 39030  97.6902 176.1176 0000792  86.4881 273.6420 14.75261924695119
LANDSAT 8               
1 39084U 13008A   25333.81518329  .00000428  00000+0  10503-3 0  9994
2 39084  98.2088  42.0784 0001102  87.7697 272.3628 14.57119711668865
SARAL                   
1 39086U 13009A   25333.80797866  .00000137  00000+0  66340-4 0  9999
2 39086  98.5507 157.9068 0002497 133.8193 226.3198 14.32749635667057
GAOFEN-1                
1 39150U 13018A   25333.82608095  .00000839  00000+0  12750-3 0  9992
2 39150  97.9341  44.7128 0017386 183.8212 176.2868 14.76496630678824
VNREDSAT 1              
1 39160U 13021B   25333.84858867  .00000692  00000+0  13806-3 0  9993
2 39160  97.9391  29.5744 0001411  84.6270 275.5094 14.64890916671109
ARIRANG-5 (KOMPSAT-5)   
1 39227U 13042A   25333.84056089  .00001736  00000+0  12829-3 0  9990
2 39227  97.6169 158.3280 0004514  90.7702 269.4041 15.04520310673888
SKYSAT-A                
1 39418U 13066C   25333.69930744  .00004122  00000+0  24634-3 0  9999
2 39418  97.4132  24.3042 0020638 284.8721  75.0224 15.11453185658338
